*******************************************************************************
Ephemeris / WWW_USER Mon Mar 10 14:48:37 2025 Pasadena, USA      / Horizons    
*******************************************************************************
Target body name: (2017 SN16)                     {source: JPL#20}
Center body name: Earth (399)                     {source: DE441}
Center-site name: Gemini South Obs., Cerro Pachon
*******************************************************************************
Start time      : A.D. 2018-Sep-27 22:50:00.0000 UT      
Stop  time      : A.D. 2018-Sep-28 10:16:00.0000 UT      
Step-size       : 1 minutes
*******************************************************************************
Target pole/equ : undefined
Target radii    : undefined                                                    
Center geodetic : 289.2634, -30.2406227, 2.71233  {E-lon(deg),Lat(deg),Alt(km)}
Center cylindric: 289.2634,5517.21435,-3194.81213 {E-lon(deg),Dxy(km),Dz(km)}
Center pole/equ : ITRF93                          {East-longitude positive}
Center radii    : 6378.137, 6378.137, 6356.752 km {Equator_a, b, pole_c}       
Target primary  : Sun
Vis. interferer : MOON (R_eq= 1737.400) km        {source: DE441}
Rel. light bend : Sun                             {source: DE441}
Rel. lght bnd GM: 1.3271E+11 km^3/s^2                                          
Small-body perts: Yes                             {source: SB441-N16}
Atmos refraction: NO (AIRLESS)
RA format       : HMS
Time format     : CAL 
Calendar mode   : Mixed Julian/Gregorian
RTS-only print  : NO       
EOP file        : eop.250307.p250603                                           
EOP coverage    : DATA-BASED 1962-JAN-20 TO 2025-MAR-07. PREDICTS-> 2025-JUN-02
Units conversion: 1 au= 149597870.700 km, c= 299792.458 km/s, 1 day= 86400.0 s 
Table cut-offs 1: Elevation (-90.0deg=NO ),Airmass (>38.000=NO), Daylight (YES)
Table cut-offs 2: Solar elongation (  0.0,180.0=NO ),Local Hour Angle( 0.0=NO )
Table cut-offs 3: RA/DEC angular rate (     0.0=NO )                           
*******************************************************************************
Initial IAU76/J2000 heliocentric ecliptic osculating elements (au, days, deg.):
  EPOCH=  2458305.5 ! 2018-Jul-06.00 (TDB)         Residual RMS= .23751        
   EC= .1454884975659386   QR= .8682464985612274   TP= 2458145.5722438502      
   OM= 2.759719470837934   W=  137.1017088998531   IN= 13.38264682844635       
  Equivalent ICRF heliocentric cartesian coordinates (au, au/d):
   X= 5.756755401261899E-01  Y=-7.953424559592890E-01  Z=-6.031561894536019E-01
  VX= 1.332076113263395E-02 VY= 5.454663564585547E-03 VZ= 3.896229736425836E-03
Asteroid physical parameters (km, seconds, rotational period in hours):        
   GM= n.a.                RAD= n.a.               ROTPER= n.a.                
   H= 23.34                G= .150                 B-V= n.a.                   
                           ALBEDO= n.a.            STYP= n.a.                  
*******************************************************************************
 Date__(UT)__HR:MN     R.A._________(ICRF)_________DEC
******************************************************
$$SOE
 2018-Sep-28 07:02  m  22 58 58.361234 -06 50 19.84323
 2018-Sep-28 07:03  m  22 58 58.070219 -06 50 16.89566
 2018-Sep-28 07:04  m  22 58 57.779276 -06 50 13.94800
 2018-Sep-28 07:05  m  22 58 57.488405 -06 50 11.00026
 2018-Sep-28 07:06  m  22 58 57.197607 -06 50 08.05242
 2018-Sep-28 07:07  m  22 58 56.906881 -06 50 05.10449
 2018-Sep-28 07:08  m  22 58 56.616228 -06 50 02.15647
 2018-Sep-28 07:09  m  22 58 56.325648 -06 49 59.20836
 2018-Sep-28 07:10  m  22 58 56.035141 -06 49 56.26016
 2018-Sep-28 07:11  m  22 58 55.744708 -06 49 53.31188
 2018-Sep-28 07:12  m  22 58 55.454349 -06 49 50.36351
 2018-Sep-28 07:13  m  22 58 55.164063 -06 49 47.41505
 2018-Sep-28 07:14  m  22 58 54.873851 -06 49 44.46650
 2018-Sep-28 07:15  m  22 58 54.583713 -06 49 41.51787
 2018-Sep-28 07:16  m  22 58 54.293650 -06 49 38.56916
 2018-Sep-28 07:17  m  22 58 54.003661 -06 49 35.62036
 2018-Sep-28 07:18  m  22 58 53.713747 -06 49 32.67147
 2018-Sep-28 07:19  m  22 58 53.423908 -06 49 29.72251
 2018-Sep-28 07:20  m  22 58 53.134144 -06 49 26.77346
 2018-Sep-28 07:21  m  22 58 52.844455 -06 49 23.82432
 2018-Sep-28 07:22  m  22 58 52.554842 -06 49 20.87511
 2018-Sep-28 07:23  m  22 58 52.265304 -06 49 17.92582
 2018-Sep-28 07:24  m  22 58 51.975842 -06 49 14.97644
 2018-Sep-28 07:25  m  22 58 51.686456 -06 49 12.02699
 2018-Sep-28 07:26  m  22 58 51.397145 -06 49 09.07745
 2018-Sep-28 07:27  m  22 58 51.107912 -06 49 06.12784
 2018-Sep-28 07:28  m  22 58 50.818754 -06 49 03.17815
 2018-Sep-28 07:29  m  22 58 50.529673 -06 49 00.22838
 2018-Sep-28 07:30  m  22 58 50.240669 -06 48 57.27854
 2018-Sep-28 07:31  m  22 58 49.951742 -06 48 54.32862
 2018-Sep-28 07:32  m  22 58 49.662892 -06 48 51.37862
 2018-Sep-28 07:33  m  22 58 49.374120 -06 48 48.42855
 2018-Sep-28 07:34  m  22 58 49.085424 -06 48 45.47841
 2018-Sep-28 07:35  m  22 58 48.796806 -06 48 42.52819
 2018-Sep-28 07:36  m  22 58 48.508266 -06 48 39.57790
 2018-Sep-28 07:37  m  22 58 48.219804 -06 48 36.62753
 2018-Sep-28 07:38  m  22 58 47.931420 -06 48 33.67710
 2018-Sep-28 07:39  m  22 58 47.643114 -06 48 30.72659
 2018-Sep-28 07:40  m  22 58 47.354886 -06 48 27.77601
 2018-Sep-28 07:41  m  22 58 47.066737 -06 48 24.82536
 2018-Sep-28 07:42  m  22 58 46.778666 -06 48 21.87465
 2018-Sep-28 07:43  m  22 58 46.490674 -06 48 18.92386
 2018-Sep-28 07:44  m  22 58 46.202761 -06 48 15.97300
 2018-Sep-28 07:45  m  22 58 45.914927 -06 48 13.02208
 2018-Sep-28 07:46  m  22 58 45.627172 -06 48 10.07109
 2018-Sep-28 07:47  m  22 58 45.339496 -06 48 07.12004
 2018-Sep-28 07:48  m  22 58 45.051900 -06 48 04.16892
 2018-Sep-28 07:49  m  22 58 44.764384 -06 48 01.21773
 2018-Sep-28 07:50  m  22 58 44.476947 -06 47 58.26648
 2018-Sep-28 07:51  m  22 58 44.189590 -06 47 55.31516
 2018-Sep-28 07:52  m  22 58 43.902313 -06 47 52.36379
 2018-Sep-28 07:53  m  22 58 43.615116 -06 47 49.41235
 2018-Sep-28 07:54  m  22 58 43.327999 -06 47 46.46084
 2018-Sep-28 07:55  m  22 58 43.040963 -06 47 43.50928
 2018-Sep-28 07:56  m  22 58 42.754007 -06 47 40.55765
 2018-Sep-28 07:57  m  22 58 42.467132 -06 47 37.60597
 2018-Sep-28 07:58  m  22 58 42.180337 -06 47 34.65422
 2018-Sep-28 07:59  m  22 58 41.893624 -06 47 31.70242
 2018-Sep-28 08:00  m  22 58 41.606991 -06 47 28.75056
 2018-Sep-28 08:01  m  22 58 41.320439 -06 47 25.79864
 2018-Sep-28 08:02  m  22 58 41.033969 -06 47 22.84666
 2018-Sep-28 08:03  m  22 58 40.747580 -06 47 19.89463
 2018-Sep-28 08:04  m  22 58 40.461272 -06 47 16.94254
 2018-Sep-28 08:05  m  22 58 40.175046 -06 47 13.99040
 2018-Sep-28 08:06  m  22 58 39.888901 -06 47 11.03820
 2018-Sep-28 08:07  m  22 58 39.602839 -06 47 08.08594
 2018-Sep-28 08:08  m  22 58 39.316858 -06 47 05.13364
 2018-Sep-28 08:09  m  22 58 39.030959 -06 47 02.18128
 2018-Sep-28 08:10  m  22 58 38.745142 -06 46 59.22887
 2018-Sep-28 08:11  m  22 58 38.459407 -06 46 56.27641
 2018-Sep-28 08:12  m  22 58 38.173755 -06 46 53.32389
 2018-Sep-28 08:13  m  22 58 37.888185 -06 46 50.37133
 2018-Sep-28 08:14  m  22 58 37.602697 -06 46 47.41872
 2018-Sep-28 08:15  m  22 58 37.317292 -06 46 44.46606
 2018-Sep-28 08:16  m  22 58 37.031970 -06 46 41.51335
 2018-Sep-28 08:17  m  22 58 36.746730 -06 46 38.56059
 2018-Sep-28 08:18  m  22 58 36.461573 -06 46 35.60779
 2018-Sep-28 08:19  m  22 58 36.176499 -06 46 32.65494
 2018-Sep-28 08:20  m  22 58 35.891509 -06 46 29.70204
 2018-Sep-28 08:21  m  22 58 35.606601 -06 46 26.74910
 2018-Sep-28 08:22  m  22 58 35.321776 -06 46 23.79612
 2018-Sep-28 08:23  m  22 58 35.037035 -06 46 20.84309
 2018-Sep-28 08:24  m  22 58 34.752377 -06 46 17.89001
 2018-Sep-28 08:25  m  22 58 34.467802 -06 46 14.93690
 2018-Sep-28 08:26  m  22 58 34.183311 -06 46 11.98374
 2018-Sep-28 08:27  m  22 58 33.898904 -06 46 09.03054
 2018-Sep-28 08:28  m  22 58 33.614580 -06 46 06.07730
 2018-Sep-28 08:29  m  22 58 33.330340 -06 46 03.12403
 2018-Sep-28 08:30  m  22 58 33.046184 -06 46 00.17071
 2018-Sep-28 08:31  m  22 58 32.762111 -06 45 57.21735
 2018-Sep-28 08:32  m  22 58 32.478123 -06 45 54.26396
 2018-Sep-28 08:33  m  22 58 32.194219 -06 45 51.31052
 2018-Sep-28 08:34  m  22 58 31.910398 -06 45 48.35705
 2018-Sep-28 08:35  m  22 58 31.626662 -06 45 45.40355
 2018-Sep-28 08:36  m  22 58 31.343010 -06 45 42.45001
 2018-Sep-28 08:37  m  22 58 31.059442 -06 45 39.49643
 2018-Sep-28 08:38  m  22 58 30.775959 -06 45 36.54282
 2018-Sep-28 08:39  m  22 58 30.492560 -06 45 33.58918
 2018-Sep-28 08:40  m  22 58 30.209245 -06 45 30.63550
 2018-Sep-28 08:41  m  22 58 29.926015 -06 45 27.68179
 2018-Sep-28 08:42  m  22 58 29.642870 -06 45 24.72805
 2018-Sep-28 08:43  m  22 58 29.359809 -06 45 21.77428
 2018-Sep-28 08:44  m  22 58 29.076832 -06 45 18.82048
 2018-Sep-28 08:45  m  22 58 28.793941 -06 45 15.86665
 2018-Sep-28 08:46  m  22 58 28.511134 -06 45 12.91278
 2018-Sep-28 08:47  m  22 58 28.228412 -06 45 09.95890
 2018-Sep-28 08:48  m  22 58 27.945774 -06 45 07.00498
 2018-Sep-28 08:49  m  22 58 27.663222 -06 45 04.05103
 2018-Sep-28 08:50  m  22 58 27.380755 -06 45 01.09706
 2018-Sep-28 08:51  m  22 58 27.098372 -06 44 58.14306
 2018-Sep-28 08:52  m  22 58 26.816074 -06 44 55.18904
 2018-Sep-28 08:53  m  22 58 26.533862 -06 44 52.23499
 2018-Sep-28 08:54  m  22 58 26.251734 -06 44 49.28092
 2018-Sep-28 08:55  m  22 58 25.969692 -06 44 46.32683
 2018-Sep-28 08:56  m  22 58 25.687735 -06 44 43.37271
 2018-Sep-28 08:57  m  22 58 25.405863 -06 44 40.41857
 2018-Sep-28 08:58  m  22 58 25.124076 -06 44 37.46441
 2018-Sep-28 08:59  m  22 58 24.842374 -06 44 34.51023
 2018-Sep-28 09:00  m  22 58 24.560758 -06 44 31.55603
 2018-Sep-28 09:01  m  22 58 24.279226 -06 44 28.60181
 2018-Sep-28 09:02  m  22 58 23.997780 -06 44 25.64757
 2018-Sep-28 09:03  m  22 58 23.716420 -06 44 22.69331
 2018-Sep-28 09:04  m  22 58 23.435144 -06 44 19.73903
